{
    "links": {
        "self": "http://www.neowsapp.com/rest/v1/neo/3451022?api_key=iIulBulltgU6a56xZRHN4H3l9WmuAYTsLGpBGhQ2"
    },
    "id": "3451022",
    "neo_reference_id": "3451022",
    "name": "(2009 FA)",
    "designation": "2009 FA",
    "nasa_jpl_url": "http://ssd.jpl.nasa.gov/sbdb.cgi?sstr=3451022",
    "absolute_magnitude_h": 18.6,
    "estimated_diameter": {
        "kilometers": {
            "estimated_diameter_min": 0.5064714588,
            "estimated_diameter_max": 1.1325046106
        },
        "meters": {
            "estimated_diameter_min": 506.4714588346,
            "estimated_diameter_max": 1132.5046106177
        },
        "miles": {
            "estimated_diameter_min": 0.3147066768,
            "estimated_diameter_max": 0.7037055224
        },
        "feet": {
            "estimated_diameter_min": 1661.651821003,
            "estimated_diameter_max": 3715.566426699
        }
    },
    "is_potentially_hazardous_asteroid": false,
    "close_approach_data": [
        {
            "close_approach_date": "1992-04-03",
            "close_approach_date_full": "1992-Apr-03 13:11",
            "epoch_date_close_approach": 702306660000,
            "relative_velocity": {
                "kilometers_per_second": "23.1068970251",
                "kilometers_per_hour": "83184.8292905375",
                "miles_per_hour": "51687.8179555565"
            },
            "miss_distance": {
                "astronomical": "0.3988320544",
                "lunar": "155.1456691616",
                "kilometers": "59664425.825964128",
                "miles": "37073755.0753878464"
            },
            "orbiting_body": "Earth"
        },
        {
            "close_approach_date": "2009-03-30",
            "close_approach_date_full": "2009-Mar-30 01:14",
            "epoch_date_close_approach": 1238375640000,
            "relative_velocity": {
                "kilometers_per_second": "23.1345629464",
                "kilometers_per_hour": "83284.4266070112",
                "miles_per_hour": "51749.7038547843"
            },
            "miss_distance": {
                "astronomical": "0.2406880219",
                "lunar": "93.6276405191",
                "kilometers": "36006415.410753353",
                "miles": "22373349.0702601514"
            },
            "orbiting_body": "Earth"
        },
        {
            "close_approach_date": "2010-12-23",
            "close_approach_date_full": "2010-Dec-23 17:30",
            "epoch_date_close_approach": 1293125400000,
            "relative_velocity": {
                "kilometers_per_second": "9.604955303",
                "kilometers_per_hour": "34577.8390908465",
                "miles_per_hour": "21485.3245173096"
            },
            "miss_distance": {
                "astronomical": "1.1112059821",
                "lunar": "432.2591270369",
                "kilometers": "166234048.053418127",
                "miles": "103293047.6981270726"
            },
            "orbiting_body": "Juptr"
        },
        {
            "close_approach_date": "2026-03-24",
            "close_approach_date_full": "2026-Mar-24 06:56",
            "epoch_date_close_approach": 1774335360000,
            "relative_velocity": {
                "kilometers_per_second": "23.8717473444",
                "kilometers_per_hour": "85938.2904398512",
                "miles_per_hour": "53398.7116346953"
            },
            "miss_distance": {
                "astronomical": "0.2107992709",
                "lunar": "82.0009163801",
                "kilometers": "31535121.924192983",
                "miles": "19595016.1307218454"
            },
            "orbiting_body": "Earth"
        }
    ],
    "orbital_data": {
        "orbit_id": "32",
        "orbit_determination_date": "2017-04-06 09:01:03",
        "first_observation_date": "2009-03-16",
        "last_observation_date": "2009-04-14",
        "data_arc_in_days": 29,
        "observations_used": 324,
        "orbit_uncertainty": "6",
        "minimum_orbit_intersection": ".185307",
        "jupiter_tisserand_invariant": "2.863",
        "epoch_osculation": "2459000.5",
        "eccentricity": ".5569091165286756",
        "semi_major_axis": "2.61672019049324",
        "inclination": "42.0748078910777",
        "ascending_node_longitude": "3.219360930091064",
        "orbital_period": "1546.088518326697",
        "perihelion_distance": "1.159444861002902",
        "perihelion_argument": "200.5903952876057",
        "aphelion_distance": "4.073995519983578",
        "perihelion_time": "2459588.629860960658",
        "mean_anomaly": "223.0565149174093",
        "mean_motion": ".2328456590503767",
        "equinox": "J2000",
        "orbit_class": {
            "orbit_class_type": "AMO",
            "orbit_class_description": "Near-Earth asteroid orbits similar to that of 1221 Amor",
            "orbit_class_range": "1.017 AU < q (perihelion) < 1.3 AU"
        }
    },
    "is_sentry_object": false
}